NORAD_CAT_ID,OBJECT_NAME,OBJECT_TYPE,EPOCH,MEAN_MOTION,ECCENTRICITY,INCLINATION,RA_OF_ASC_NODE,ARG_OF_PERICENTER,MEAN_ANOMALY,BSTAR,MEAN_MOTION_DOT,MEAN_MOTION_DDOT,TLE_LINE0,TLE_LINE1,TLE_LINE2,SEMIMAJOR_AXIS,PERIOD,APOGEE,PERIGEE,DECAYED
53177.0,STARLINK-4298,PAYLOAD,2023-09-15 07:04:27,15.08829001,0.0001449,53.2144,248.075,88.5275,271.5883,0.0006793,0.00010536,0.0,0 STARLINK-4298,1 53177U 22083AX  23258.29475845  .00010536  00000-0  67930-3 0  9995,2 53177  53.2144 248.0750 0001449  88.5275 271.5883 15.08829001 64865,6917.914,95.438,540.781,538.777,0.0
53177.0,STARLINK-4298,PAYLOAD,2023-09-15 16:36:46,15.08839841,0.0001455,53.2144,246.2908,87.3753,272.7406,0.00077341,0.00012042,0.0,0 STARLINK-4298,1 53177U 22083AX  23258.69219922  .00012042  00000-0  77341-3 0  9992,2 53177  53.2144 246.2908 0001455  87.3753 272.7406 15.08839841 65560,6917.881,95.438,540.752,538.739,0.0
53177.0,STARLINK-4298,PAYLOAD,2023-09-16 08:30:36,15.08865983,0.0001502,53.2146,243.3173,86.0889,274.0275,0.0010409,0.00016328,0.0,0 STARLINK-4298,1 53177U 22083AX  23259.35459198  .00016328  00000-0  10409-2 0  9999,2 53177  53.2146 243.3173 0001502  86.0889 274.0275 15.08865983 65669,6917.801,95.436,540.705,538.627,0.0
53177.0,STARLINK-4298,PAYLOAD,2023-09-16 16:27:32,15.08856783,0.0001579,53.2147,241.8298,95.1448,264.9724,0.00059514,9.201e-05,0.0,0 STARLINK-4298,1 53177U 22083AX  23259.68579112  .00009201  00000-0  59514-3 0  9997,2 53177  53.2147 241.8298 0001579  95.1448 264.9724 15.08856783 65718,6917.829,95.436,540.786,538.602,0.0
53177.0,STARLINK-4298,PAYLOAD,2023-09-17 08:21:23,15.08859507,0.0001501,53.2147,238.8557,100.2034,259.9127,0.00064146,9.941e-05,0.0,0 STARLINK-4298,1 53177U 22083AX  23260.34818648  .00009941  00000-0  64146-3 0  9990,2 53177  53.2147 238.8557 0001501 100.2034 259.9127 15.08859507 65174,6917.821,95.436,540.724,538.647,0.0
53177.0,STARLINK-4298,PAYLOAD,2023-09-17 16:18:19,15.08852544,0.0001725,53.2146,237.3704,80.3606,279.7581,0.00062763,9.718e-05,0.0,0 STARLINK-4298,1 53177U 22083AX  23260.67938901  .00009718  00000-0  62763-3 0  9996,2 53177  53.2146 237.3704 0001725  80.3606 279.7581 15.08852544 65866,6917.842,95.437,540.9,538.514,0.0
53177.0,STARLINK-4298,PAYLOAD,2023-09-18 08:12:10,15.08851415,0.0001456,53.2152,234.3948,93.5377,266.5781,0.00013668,1.889e-05,0.0,0 STARLINK-4298,1 53177U 22083AX  23261.34178417  .00001889  00000-0  13668-3 0  9990,2 53177  53.2152 234.3948 0001456  93.5377 266.5781 15.08851415 65965,6917.845,95.437,540.718,538.703,0.0
53177.0,STARLINK-4298,PAYLOAD,2023-09-19 01:41:24,15.08846695,0.0001469,53.2156,231.1242,96.4656,263.6503,0.000116,1.559e-05,0.0,0 STARLINK-4298,1 53177U 22083AX  23262.07042520  .00001559  00000-0  11600-3 0  9994,2 53177  53.2156 231.1242 0001469  96.4656 263.6503 15.08846695 66074,6917.86,95.437,540.741,538.709,0.0
53177.0,STARLINK-4298,PAYLOAD,2023-09-19 08:02:56,15.08855186,0.0001421,53.2156,229.934,86.6459,273.4696,0.00029482,4.409e-05,0.0,0 STARLINK-4298,1 53177U 22083AX  23262.33538090  .00004409  00000-0  29482-3 0  9999,2 53177  53.2156 229.9340 0001421  86.6459 273.4696 15.08855186 66110,6917.834,95.437,540.682,538.716,0.0
53177.0,STARLINK-4298,PAYLOAD,2023-09-20 03:07:34,15.08841511,0.0001389,53.2159,226.3649,91.6432,268.4719,6.6963e-05,7.78e-06,0.0,0 STARLINK-4298,1 53177U 22083AX  23263.13026542  .00000778  00000-0  66963-4 0  9993,2 53177  53.2159 226.3649 0001389  91.6432 268.4719 15.08841511 66236,6917.876,95.437,540.702,538.78,0.0
53177.0,STARLINK-4298,PAYLOAD,2023-09-20 14:15:17,15.08837679,0.0001497,53.2167,224.2833,86.0773,274.039,7.4367e-07,-2.76e-06,0.0,0 STARLINK-4298,1 53177U 22083AX  23263.59394736 -.00000276  00000-0  74367-6 0  9999,2 53177  53.2167 224.2833 0001497  86.0773 274.0390 15.08837679 65667,6917.887,95.438,540.788,538.717,0.0
53177.0,STARLINK-4298,PAYLOAD,2023-09-21 01:22:59,15.08825134,0.0001615,53.2181,222.2094,105.7583,254.3588,-0.00021325,-3.679e-05,0.0,0 STARLINK-4298,1 53177U 22083AX  23264.05763617 -.00003679  00000-0 -21325-3 0  9993,2 53177  53.2181 222.2094 0001615 105.7583 254.3588 15.08825134 66372,6917.926,95.438,540.908,538.674,0.0
53177.0,STARLINK-4298,PAYLOAD,2023-09-21 07:44:32,15.08829902,0.0001439,53.2166,221.0133,90.1263,269.9894,-8.7232e-05,-1.676e-05,0.0,0 STARLINK-4298,1 53177U 22083AX  23264.32259718 -.00001676  00000-0 -87232-4 0  9990,2 53177  53.2166 221.0133 0001439  90.1263 269.9894 15.08829902 65774,6917.911,95.438,540.772,538.781,0.0
53177.0,STARLINK-4298,PAYLOAD,2023-09-22 02:49:09,15.0884535,0.0001434,53.2168,217.446,94.3724,265.7432,0.00025721,3.809e-05,0.0,0 STARLINK-4298,1 53177U 22083AX  23265.11747493  .00003809  00000-0  25721-3 0  9992,2 53177  53.2168 217.4460 0001434  94.3724 265.7432 15.08845350 66533,6917.864,95.437,540.721,538.737,0.0
53177.0,STARLINK-4298,PAYLOAD,2023-09-22 05:59:56,15.08852114,0.00014,53.2164,216.8504,91.3388,268.7764,0.00064254,9.956e-05,0.0,0 STARLINK-4298,1 53177U 22083AX  23265.24995557  .00009956  00000-0  64254-3 0  9995,2 53177  53.2164 216.8504 0001400  91.3388 268.7764 15.08852114 65915,6917.843,95.437,540.677,538.74,0.0
53177.0,STARLINK-4298,PAYLOAD,2023-09-23 02:39:56,15.08839319,0.0001397,53.217,212.9787,116.9768,243.1367,0.00014739,2.059e-05,0.0,0 STARLINK-4298,1 53177U 22083AX  23266.11107545  .00002059  00000-0  14739-3 0  9994,2 53177  53.2170 212.9787 0001397 116.9768 243.1367 15.08839319 66686,6917.882,95.438,540.714,538.781,0.0
53177.0,STARLINK-4298,PAYLOAD,2023-09-23 05:50:43,15.08834625,0.0001306,53.2162,212.3893,86.3046,273.8095,2.5306e-05,1.15e-06,0.0,0 STARLINK-4298,1 53177U 22083AX  23266.24356129  .00000115  00000-0  25306-4 0  9996,2 53177  53.2162 212.3893 0001306  86.3046 273.8095 15.08834625 66063,6917.897,95.438,540.665,538.858,0.0
53177.0,STARLINK-4298,PAYLOAD,2023-09-24 02:30:43,15.08854221,0.0001237,53.2172,208.5263,88.0055,272.1078,7.4558e-05,8.99e-06,0.0,0 STARLINK-4298,1 53177U 22083AX  23267.10467292  .00000899  00000-0  74558-4 0  9998,2 53177  53.2172 208.5263 0001237  88.0055 272.1078 15.08854221 66836,6917.837,95.437,540.558,538.846,0.0
53177.0,STARLINK-4298,PAYLOAD,2023-09-24 05:41:30,15.08852612,0.0001278,53.2161,207.9309,84.2889,275.8249,0.00014501,2.021e-05,0.0,0 STARLINK-4298,1 53177U 22083AX  23267.23715338  .00002021  00000-0  14501-3 0  9999,2 53177  53.2161 207.9309 0001278  84.2889 275.8249 15.08852612 66210,6917.842,95.437,540.591,538.823,0.0
53177.0,STARLINK-4298,PAYLOAD,2023-09-25 02:21:31,15.08844039,0.0001426,53.2167,204.0624,91.373,268.7425,0.00021984,3.213e-05,0.0,0 STARLINK-4298,1 53177U 22083AX  23268.09827836  .00003213  00000-0  21984-3 0  9998,2 53177  53.2167 204.0624 0001426  91.3730 268.7425 15.08844039 66988,6917.868,95.437,540.72,538.747,0.0
53177.0,STARLINK-4298,PAYLOAD,2023-09-25 05:32:17,15.08848722,0.0001417,53.2167,203.4672,92.1521,267.9633,0.0002821,4.206e-05,0.0,0 STARLINK-4298,1 53177U 22083AX  23268.23075620  .00004206  00000-0  28210-3 0  9992,2 53177  53.2167 203.4672 0001417  92.1521 267.9633 15.08848722 66368,6917.854,95.437,540.699,538.738,0.0
53177.0,STARLINK-4298,PAYLOAD,2023-09-26 05:23:04,15.08848029,0.0001443,53.2164,199.0077,93.2971,266.8187,2.7561e-05,1.51e-06,0.0,0 STARLINK-4298,1 53177U 22083AX  23269.22435391  .00000151  00000-0  27561-4 0  9991,2 53177  53.2164 199.0077 0001443  93.2971 266.8187 15.08848029 67154,6917.856,95.437,540.719,538.723,0.0
53177.0,STARLINK-4298,PAYLOAD,2023-09-26 19:41:33,15.08831895,0.0001513,53.2161,196.3275,112.0274,248.0879,-0.00010862,-2.016e-05,0.0,0 STARLINK-4298,1 53177U 22083AX  23269.82052413 -.00002016  00000-0 -10862-3 0  9996,2 53177  53.2161 196.3275 0001513 112.0274 248.0879 15.08831895 66607,6917.905,95.438,540.817,538.723,0.0
53177.0,STARLINK-4298,PAYLOAD,2023-09-27 02:03:05,15.08835701,0.0001545,53.2166,195.1403,104.6125,255.5039,-2.2904e-05,-6.52e-06,0.0,0 STARLINK-4298,1 53177U 22083AX  23270.08548264 -.00000652  00000-0 -22904-4 0  9995,2 53177  53.2166 195.1403 0001545 104.6125 255.5039 15.08835701 67285,6917.894,95.438,540.827,538.69,0.0
53177.0,STARLINK-4298,PAYLOAD,2023-09-27 11:35:24,15.08839303,0.0001413,53.2163,193.3577,96.2387,263.8766,2.7256e-05,1.46e-06,0.0,0 STARLINK-4298,1 53177U 22083AX  23270.48292172  .00000146  00000-0  27256-4 0  9994,2 53177  53.2163 193.3577 0001413  96.2387 263.8766 15.08839303 66701,6917.883,95.438,540.725,538.77,0.0
53177.0,STARLINK-4298,PAYLOAD,2023-09-28 01:53:52,15.08849563,0.0001338,53.2166,190.6817,102.4125,257.7017,0.00030503,4.571e-05,0.0,0 STARLINK-4298,1 53177U 22083AX  23271.07907888  .00004571  00000-0  30503-3 0  9991,2 53177  53.2166 190.6817 0001338 102.4125 257.7017 15.08849563 67438,6917.851,95.437,540.642,538.791,0.0
53177.0,STARLINK-4298,PAYLOAD,2023-09-28 05:04:38,15.08853366,0.0001359,53.2167,190.0865,105.031,255.0833,0.00036596,5.543e-05,0.0,0 STARLINK-4298,1 53177U 22083AX  23271.21155668  .00005543  00000-0  36596-3 0  9996,2 53177  53.2167 190.0865 0001359 105.0310 255.0833 15.08853366 66818,6917.84,95.437,540.645,538.764,0.0
53177.0,STARLINK-4298,PAYLOAD,2023-09-28 22:33:53,15.08841386,0.0002071,53.2166,186.8142,127.3237,232.7944,5.7119e-05,6.21e-06,0.0,0 STARLINK-4298,1 53177U 22083AX  23271.94020060  .00000621  00000-0  57119-4 0  9990,2 53177  53.2166 186.8142 0002071 127.3237 232.7944 15.08841386 67562,6917.876,95.437,541.174,538.308,0.0
53177.0,STARLINK-4298,PAYLOAD,2023-09-29 03:20:02,15.08840279,0.000134,53.2162,185.9241,83.0256,277.0888,6.163e-05,6.93e-06,0.0,0 STARLINK-4298,1 53177U 22083AX  23272.13892300  .00000693  00000-0  61630-4 0  9998,2 53177  53.2162 185.9241 0001340  83.0256 277.0888 15.08840279 66956,6917.88,95.438,540.672,538.818,0.0
53177.0,STARLINK-4298,PAYLOAD,2023-09-30 01:35:26,15.08848853,0.0001542,53.2164,181.7621,76.4381,283.6782,0.0001642,2.327e-05,0.0,0 STARLINK-4298,1 53177U 22083AX  23273.06627900  .00002327  00000-0  16420-3 0  9995,2 53177  53.2164 181.7621 0001542  76.4381 283.6782 15.08848853 67732,6917.853,95.437,540.785,538.652,0.0
